C/2015 X8 (NEOWISE),e,155.1982,191.1553,20.4132,19.75940,0.0112213,0.94003186,18.9606,06/09.0/2020,2000,g 16.0,4.0
# From MPC109143
C/2015 Y1 (LINEAR),e,71.1683,135.8157,24.6853,251.2043,0.0002476,0.98998173,0.0000,05/14.0531/2016,2000,g 12.0,4.0
# From MPC105543
C/2015 YG1 (NEOWISE),e,57.2840,350.5459,102.4966,17.00175,0.0140593,0.87851610,24.1297,06/09.0/2020,2000,g 13.0,4.0
# From MPC119995
C/2016 A1 (PANSTARRS),h,11/22.8881/2017,121.2051,128.2055,10.2756,1.001789,5.324844,2000,6.0,4.0
# From MPC100282
P/2016 A2 (Christensen),e,26.4069,291.6141,141.6001,4.749816,0.0952114,0.27103064,172.8359,06/09.0/2020,2000,g 11.5,4.0
# From MPC115881
P/2016 A3 (PANSTARRS),e,8.5110,187.2931,340.9001,7.890236,0.0444702,0.38784240,50.5376,06/09.0/2020,2000,g 10.0,4.0
# From MPC109143
C/2016 A5 (PANSTARRS),e,40.2405,136.1822,321.5058,646.6541,0.0000599,0.99544892,0.0000,06/26.7442/2015,2000,g 13.5,4.0
# From MPC109143
C/2016 A6 (PANSTARRS),e,120.9355,300.3766,141.0568,206.3790,0.0003324,0.98834727,0.0000,11/06.4291/2015,2000,g 15.0,4.0
# From MPC102098
P/2016 A7 (PANSTARRS),e,16.6267,221.4799,352.6310,5.030917,0.0873440,0.56553878,136.7743,06/09.0/2020,2000,g 16.0,4.0
# From MPC106345
C/2016 A8 (LINEAR),e,148.2428,111.3312,130.3720,34.27577,0.0049116,0.94496428,6.7759,06/09.0/2020,2000,g 12.0,4.0
# From MPC107048
C/2016 B1 (NEOWISE),e,50.4641,231.9821,8.6765,442.5064,0.0001059,0.99273745,0.0000,12/04.7784/2016,2000,g  9.5,4.0
# From MPC109143
P/2016 BA14 (PANSTARRS),e,18.8957,180.5344,351.9047,3.024311,0.1873978,0.66523623,290.0390,06/09.0/2020,2000,g 21.0,4.0
# From MPC110494
C/2016 C1 (PANSTARRS),h,02/18.9968/2016,56.2206,181.8052,328.7672,1.002334,8.466631,2000,5.5,4.0
# From MPC101098
C/2016 C2 (NEOWISE),e,38.0777,24.4242,214.5471,65.96818,0.0018395,0.97625168,0.0000,04/19.5269/2016,2000,g 16.0,4.0
# From MPC110494
C/2016 E1 (PANSTARRS),h,06/04.2078/2017,131.8910,233.0621,47.4674,1.005789,8.179872,2000,6.5,4.0
# From MPC 99821
C/2016 E2 (Kowalski),e,135.9048,186.8582,321.9373,140.0296,0.0005948,0.99231666,0.0000,02/06.8779/2016,2000,g 20.0,4.0
# From MPC102098
P/2016 G1 (PANSTARRS),e,10.9690,204.0593,111.2876,2.582456,0.2374951,0.21096843,291.9731,06/09.0/2020,2000,g 14.0,4.0
# From MPEC 2017-D91
P/2016 J1-A (PANSTARRS),e,14.3248,199.8264,46.8799,3.174117,0.1742889,0.22819649,251.7199,06/09.0/2020,2000,g 16.5,4.0
# From MPEC 2017-A77
P/2016 J1-B (PANSTARRS),e,14.3275,199.8313,46.7711,3.173747,0.1743193,0.22804753,251.8387,06/09.0/2020,2000,g 17.0,4.0
# From MPC101099
C/2016 J2 (Denneau),e,130.3363,186.3661,318.6397,636.1700,0.0000614,0.99760926,0.0000,04/12.1738/2016,2000,g 17.0,4.0
# From MPC102099
C/2016 KA (Catalina),e,104.6858,317.5081,63.1979,6469,0.0000019,0.99916426,0.0000,02/02.3002/2016,2000,g  8.5,4.0
# From MPC104792
C/2016 K1 (LINEAR),e,90.9231,325.6254,18.2812,34441,0.0000002,0.99993340,0.0000,07/13.3247/2016,2000,g 13.0,4.0
# From MPC119995
C/2016 M1 (PANSTARRS),e,90.9996,92.2037,209.8767,4173,0.0000037,0.99946999,0.0000,08/10.3009/2018,2000,g  5.0,4.0
# From MPC115881
C/2016 N4 (MASTER),e,72.5971,354.0012,55.9384,2396,0.0000084,0.99866532,0.0000,09/16.4752/2017,2000,g  8.5,4.0
# From MPC119995
C/2016 N6 (PANSTARRS),e,105.8409,298.9900,162.7614,1731,0.0000137,0.99845907,0.0000,07/18.1035/2018,2000,g  7.0,4.0
# From MPC102099
P/2016 P1 (PANSTARRS),e,24.4552,319.5641,270.0566,3.194699,0.1726073,0.28934912,296.8066,06/09.0/2020,2000,g 15.0,4.0
# From MPC102099
C/2016 P4 (PANSTARRS),e,29.8809,320.7342,356.1655,397.4317,0.0001244,0.98517198,0.0000,10/18.0295/2016,2000,g 10.5,4.0
# From MPC118093
C/2016 Q2 (PANSTARRS),e,109.3894,322.2991,84.5000,18329,0.0000004,0.99961361,0.0000,05/11.5313/2021,2000,g  6.0,4.0
# From MPC102955
C/2016 Q4 (Kowalski),e,7.2576,271.2850,99.3990,16.89967,0.0141869,0.58073867,12.2601,06/09.0/2020,2000,g  7.0,4.0
# From MPC119995
C/2016 R2 (PANSTARRS),e,58.2250,80.5693,33.1827,557.0392,0.0000750,0.99532692,0.0000,05/09.3175/2018,2000,g  7.0,4.0
# From MPC102099
C/2016 R3 (Borisov),e,53.0425,78.6641,118.1968,200.0235,0.0003484,0.99774081,0.0000,10/10.4546/2016,2000,g 18.0,4.0
# From MPC109144
P/2016 R4 (Gibbs),e,10.8694,168.2826,173.9981,5.331483,0.0800630,0.47602634,113.5852,06/09.0/2020,2000,g 12.5,4.0
# From MPC105543
P/2016 S1 (PANSTARRS),e,94.6546,227.5239,273.2713,8.279248,0.0413731,0.71013139,48.8518,06/09.0/2020,2000,g 12.0,4.0
# From MPC105238
C/2016 T1 (Matheny),e,129.8473,56.2835,137.4107,123.7595,0.0007159,0.98138461,0.0000,02/01.2788/2017,2000,g 14.5,4.0
# From MPC107685
C/2016 T2 (Matheny),e,81.3728,339.1557,92.2442,99.13083,0.0009986,0.98076700,0.0000,12/29.0398/2016,2000,g 14.5,4.0
# From MPC110082
C/2016 T3 (PANSTARRS),e,22.6773,271.7416,194.6717,133.3736,0.0006399,0.98013061,0.0000,09/06.5516/2017,2000,g 10.5,4.0
# From MPC103847
C/2016 U1 (NEOWISE),h,01/14.0058/2017,46.3838,61.4751,162.8325,1.000402,0.322016,2000,17.0,4.0
# From MPC106345
C/2016 VZ18 (PANSTARRS),e,23.9840,98.9215,36.4201,169.0371,0.0004485,0.99459209,0.0000,03/06.0638/2017,2000,g 19.5,4.0
# From MPC106345
P/2016 WM48 (Lemmon),e,117.4245,59.9019,36.0836,8.168338,0.0422186,0.78406699,50.6968,06/09.0/2020,2000,g 15.0,4.0
# From MPC119995
C/2016 X1 (Lemmon),e,26.4543,256.4203,224.5207,1371,0.0000194,0.99448308,0.0000,04/29.0592/2019,2000,g  6.0,4.0
# From MPC108594
C/2017 A1 (PANSTARRS),e,49.7918,121.0451,2.0543,77.01283,0.0014583,0.97023728,0.0000,05/16.4089/2017,2000,g 13.0,4.0
# From MPC108594
C/2017 A3 (Elenin),e,98.5372,97.9077,304.0405,43.48385,0.0034373,0.91147982,4.2114,06/09.0/2020,2000,g  9.5,4.0
# From MPC114598
C/2017 AB5 (PANSTARRS),e,32.4355,42.6574,78.3523,2656,0.0000072,0.99653111,0.0000,02/16.1769/2018,2000,g  5.5,4.0
# From MPC119995
C/2017 B3 (LINEAR),h,02/02.6344/2019,54.1746,2.1795,284.7808,1.001901,3.921997,2000,6.0,4.0
# From MPC103847
P/2017 B4 (PANSTARRS),e,20.0584,121.4578,11.0197,4.410520,0.1064068,0.36495152,359.9130,01/05.0/2017,2000,g 14.5,4.0
# From MPC104793
C/2017 C1 (NEOWISE),e,65.7486,357.5056,110.1169,20.61037,0.0105336,0.92718126,13.0359,06/09.0/2020,2000,g 18.0,4.0
# From MPC107685
C/2017 C2 (PANSTARRS),e,118.5884,249.8053,138.6412,97.09201,0.0010302,0.97502890,0.0000,01/21.6022/2017,2000,g 14.0,4.0
# From MPC104793
P/2017 D1 (Fuls),e,20.7579,82.1794,8.0946,4.829974,0.0928511,0.43653082,134.1465,06/09.0/2020,2000,g 14.0,4.0
# From MPC112391
C/2017 D2 (Barros),e,31.2567,330.9733,334.4692,3280,0.0000052,0.99924140,0.0000,07/14.8513/2017,2000,g 11.0,4.0
# From MPC114598
C/2017 D3 (ATLAS),h,04/27.2882/2017,125.5793,186.6562,340.8585,1.002072,4.974012,2000,8.0,4.0
# From MPC110495
P/2017 D4 (PANSTARRS),e,10.5289,264.9388,212.3202,7.567897,0.0473414,0.62855232,64.9583,06/09.0/2020,2000,g 13.0,4.0
# From MPC104794
C/2017 D5 (PANSTARRS),e,131.0588,92.7346,287.7785,114.9352,0.0007999,0.98118588,0.0000,01/09.3989/2017,2000,g 16.0,4.0
# From MPC106346
C/2017 E1 (Borisov),h,04/10.5312/2017,14.5674,142.5970,152.6355,1.003014,0.900882,2000,14.0,4.0
# From MPC109144
C/2017 E2 (Tsuchinshan),e,79.0503,11.5876,89.3835,21.53789,0.0098605,0.89082517,14.6871,06/09.0/2020,2000,g 11.5,4.0
# From MPC115882
C/2017 E3 (PANSTARRS),h,06/08.1487/2017,70.6283,220.7326,334.5203,1.006958,5.937565,2000,6.5,4.0
# From MPC105239
C/2017 E4 (Lovejoy),h,04/23.5822/2017,88.1132,223.0878,87.0688,1.001503,0.491323,2000,17.0,4.0
# From MPC105239
C/2017 E5 (Lemmon),e,122.6635,206.3067,306.9027,390.2450,0.0001278,0.99541741,0.0000,06/10.5801/2016,2000,g 13.0,4.0
# From MPC111769
C/2017 F1 (Lemmon),h,11/30.4907/2017,146.4677,158.7824,64.7787,1.004047,4.497052,2000,10.5,4.0
# From MPC114598
C/2017 F2 (PANSTARRS),h,11/27.7209/2017,42.5132,38.6707,135.0491,1.004264,6.931971,2000,7.5,4.0
# From MPC104794
P/2017 G1 (PANSTARRS),e,4.7737,249.6269,224.5721,7.291318,0.0500605,0.65310832,75.2331,06/09.0/2020,2000,g 13.5,4.0
# From MPC108595
P/2017 G2 (PANSTARRS),e,47.9482,79.7915,105.5894,8.074910,0.0429534,0.64849121,46.9470,06/09.0/2020,2000,g 13.0,4.0
# From MPC109144
C/2017 G3 (PANSTARRS),e,159.0589,279.4803,73.1503,310.0063,0.0001806,0.99164188,0.0000,04/15.5357/2017,2000,g 14.0,4.0
# From MPC115882
C/2017 K1 (PANSTARRS),h,03/17.1123/2018,154.0107,225.6541,4.3769,1.001625,7.289200,2000,7.0,4.0
# From MPC119995
C/2017 K2 (PANSTARRS),h,12/19.9753/2022,87.5429,88.2659,236.1600,1.000426,1.799533,2000,1.5,4.0
# From MPC106346
P/2017 K3 (Gasparovic),e,4.2744,354.2964,253.4423,5.580589,0.0747625,0.58082358,82.5640,06/09.0/2020,2000,g 14.5,4.0
# From MPC114598
C/2017 K4 (ATLAS),e,16.6806,298.8682,15.2069,28.44540,0.0064966,0.90684940,5.7341,06/09.0/2020,2000,g 10.0,4.0
# From MPC119995
C/2017 K5 (PANSTARRS),h,03/24.9904/2020,82.2577,102.3741,171.8897,1.006809,7.678810,2000,5.0,4.0
# From MPC114599
C/2017 K6 (Jacques),e,57.2537,85.0504,303.7661,1055,0.0000288,0.99810486,0.0000,01/03.2411/2018,2000,g 11.0,4.0
# From MPC110083
C/2017 M3 (PANSTARRS),e,77.5375,7.0076,110.3561,167.4732,0.0004548,0.97218494,0.0000,04/28.1651/2017,2000,g 10.5,4.0
# From MPC118093
C/2017 M4 (ATLAS),h,01/17.8842/2019,105.6447,65.8654,167.5703,1.001160,3.251908,2000,6.0,4.0
# From MPC118841
C/2017 M5 (TOTAS),h,06/03.8685/2018,15.8812,216.2760,92.7297,1.005158,5.991972,2000,6.5,4.0
# From MPC114599
C/2017 O1 (ASASSN),e,39.8816,25.7756,20.8539,357.3440,0.0001459,0.99581361,0.0000,10/14.7455/2017,2000,g 11.0,4.0
# From MPC114599
P/2017 P1 (PANSTARRS),e,7.6986,221.4013,122.2064,7.889388,0.0444774,0.31041092,32.1071,06/09.0/2020,2000,g 10.0,4.0
# From MPC114599
C/2017 P2 (PANSTARRS),e,50.0591,165.5038,132.3227,1952,0.0000114,0.99873756,0.0000,12/06.6907/2017,2000,g 10.0,4.0
# From MPC114599
P/2017 R1 (PANSTARRS),e,2.5737,143.6215,178.5269,4.134880,0.1172222,0.19559672,135.5685,06/09.0/2020,2000,g 13.5,4.0
# From MPC108595
C/2017 S2 (PANSTARRS),e,12.6799,62.4139,305.9372,20.51063,0.0106105,0.82391409,10.7644,06/09.0/2020,2000,g 13.0,4.0
# From MPC114599
C/2017 S3 (PANSTARRS),h,08/15.9667/2018,99.1069,171.1388,255.8426,1.000049,0.208383,2000,11.0,4.0
# From MPC114599
